OBJECT_NAME,OBJECT_ID,EPOCH,MEAN_MOTION,ECCENTRICITY,INCLINATION,RA_OF_ASC_NODE,ARG_OF_PERICENTER,MEAN_ANOMALY,EPHEMERIS_TYPE,CLASSIFICATION_TYPE,NORAD_CAT_ID,ELEMENT_SET_NO,REV_AT_EPOCH,BSTAR,MEAN_MOTION_DOT,MEAN_MOTION_DDOT
CHUANGXIN 1-02 (CX-1-02),2008-056B,2026-07-16T14:40:55.166304,14.30159430,.0015354,98.6122,223.5840,56.5157,303.7490,0,U,33434,999,92282,.93053779E-4,.197E-5,0
STARS (KUKAI),2009-002G,2026-07-16T09:13:21.925056,14.95929759,.00098295,98.1553,145.8900,76.5948,283.6367,0,U,33498,999,94284,.15843909E-3,.1712E-4,0
KKS-1 (KISEKI),2009-002H,2026-07-16T14:29:19.129632,14.83191013,.00075549,98.1173,120.5120,184.0960,176.0193,0,U,33499,999,94055,.7606528E-4,.565E-5,0
UK-DMC 2,2009-041C,2026-07-16T15:30:17.436960,14.76094155,.00015692,97.8873,331.8982,100.1454,259.9933,0,U,35683,999,91091,.20935864E-4,.95E-6,0
OCEANSAT-2,2009-051A,2026-07-16T13:55:41.104704,13.99655944,.00174344,98.2321,181.4972,149.5033,210.7152,0,U,35931,999,88344,-.10852986E-4,-.53E-6,0
SWISSCUBE,2009-051B,2026-07-16T04:15:03.260448,14.62531689,.00078879,98.4006,105.5678,116.4429,243.7582,0,U,35932,999,89339,.97132642E-4,.443E-5,0
BEESAT-1,2009-051C,2026-07-16T06:29:02.873760,14.61762755,.00061905,98.3933,105.2367,126.9816,233.1952,0,U,35933,999,89343,.83466794E-4,.367E-5,0
ITUPSAT1,2009-051E,2026-07-16T05:13:59.908800,14.60479538,.00081551,98.4016,104.3446,140.2213,219.9586,0,U,35935,999,89297,.7971E-4,.338E-5,0
DMSP 5D-3 F18 (USA 210),2009-057A,2026-07-16T15:06:27.994752,14.14912259,.00113146,98.9057,178.3375,161.4918,198.6669,0,U,35951,999,86375,.10995349E-3,.168E-5,0
PROBA-2,2009-059B,2026-07-16T11:16:47.584416,14.54873910,.00130986,98.2459,20.4183,184.7375,175.3700,0,U,36037,999,88578,.23024685E-4,.54E-6,0
YAOGAN-7,2009-069A,2026-07-16T06:24:24.914592,14.78036020,.00234437,98.0031,82.9494,307.7241,52.1845,0,U,36110,999,89392,.3277084E-4,.184E-5,0
XIWANG-1 (HOPE-1),2009-072B,2026-07-16T13:54:32.209344,13.16439199,.00075785,100.4039,150.9444,161.7426,198.3960,0,U,36122,999,79687,-.67833921E-3,-.303E-5,0
COSMOS 2463,2010-017A,2026-07-16T12:49:48.537984,13.71667255,.00372356,82.9581,228.1430,50.2986,112.4650,0,U,36519,999,81195,.16692328E-4,.3E-6,0
CARTOSAT-2B,2010-035A,2026-07-16T13:45:51.956064,14.78653335,.00127343,97.9937,247.9326,95.7902,264.4761,0,U,36795,999,86419,.1019035E-3,.695E-5,0
TISAT 1,2010-035E,2026-07-16T08:57:55.715328,15.32758593,.00045803,98.0716,146.5388,117.8384,242.3321,0,U,36799,999,87217,.33781931E-3,.10605E-3,0
YAOGAN-10,2010-038A,2026-07-16T16:03:18.444672,14.85433385,.00016885,97.8965,220.8384,80.8998,58.7456,0,U,36834,999,86158,.12110352E-3,.99E-5,0
SHIJIAN-6 04B (SJ-6 04B),2010-051B,2026-07-16T14:05:42.874656,14.99382324,.00078238,97.8728,203.3125,207.7552,152.3254,0,U,37180,999,86008,-.1806403E-4,-.283E-5,0
FENGYUN 3B,2010-059A,2026-07-16T14:22:57.690048,14.14846788,.00231828,98.9603,243.7362,102.6212,50.3613,0,U,37214,999,81158,.8570523E-5,-.28E-6,0
COSMO-SKYMED 4,2010-060A,2026-07-16T14:35:57.552000,14.82150952,.0001517,97.8887,20.7821,87.4849,272.6538,0,U,37216,999,84892,.89955585E-4,.664E-5,0
O/OREOS (USA 219),2010-062C,2026-07-16T11:03:25.243776,14.93854221,.00140315,71.9698,14.0214,2.6006,357.5235,0,U,37224,999,12101,.98138959E-4,.98E-5,0
RESOURCESAT-2,2011-015A,2026-07-16T13:54:22.251744,14.21599715,.00116326,98.7632,264.8160,167.2076,192.9398,0,U,37387,999,79035,.29957894E-4,.21E-6,0
YOUTHSAT,2011-015B,2026-07-16T12:04:43.576896,14.25640905,.00131914,98.3703,170.2388,255.0308,216.8597,0,U,37388,999,79181,.45865004E-4,.67E-6,0
APRIZESAT 6,2011-044F,2026-07-16T06:56:11.447232,14.76957659,.00429591,98.2336,108.3804,354.7759,121.7132,0,U,37793,999,80144,.55005415E-4,.336E-5,0
JUGNU,2011-058B,2026-07-16T04:15:50.795136,14.13783599,.00185921,19.9596,132.2939,37.2294,97.4128,0,U,37839,999,76313,.36708441E-4,.337E-5,0
SRMSAT,2011-058D,2026-07-16T12:02:44.649024,14.11581255,.00117137,19.9708,242.0370,165.5426,335.9764,0,U,37841,999,76196,.34086401E-4,.328E-5,0
